SKYSAT-A                
1 39418U 13066C   26088.08688557  .00004210  00000+0  24439-3 0  9993
2 39418  97.3915 140.0257 0020475 228.4611 131.4864 15.12489001676379
SKYSAT-B                
1 40072U 14037D   26087.83018725  .00001800  00000+0  20380-3 0  9999
2 40072  98.3759  42.2670 0005684 165.3620 194.7760 14.87796013634017
SKYSAT-C1               
1 41601U 16040C   26088.19610053  .00012822  00000+0  38070-3 0  9997
2 41601  96.9668 124.2909 0001489   7.9918 352.1350 15.34909767545599
SKYSAT-C4               
1 41771U 16058B   26088.14146564  .00019262  00000+0  39534-3 0  9991
2 41771  96.9263 113.3753 0002551 129.7757 230.3718 15.46056987533096
SKYSAT-C5               
1 41772U 16058C   26088.06708525  .00010459  00000+0  31938-3 0  9993
2 41772  97.0581 132.2890 0001425 195.1231 164.9970 15.34071904531461
SKYSAT-C2               
1 41773U 16058D   26088.13711508  .00014417  00000+0  36046-3 0  9990
2 41773  97.0257 113.3189 0003021  20.3168 339.8199 15.40218090532727
SKYSAT-C3               
1 41774U 16058E   26088.19973990  .00028929  00000+0  53123-3 0  9990
2 41774  96.9142 122.2523 0002432 114.2547 245.8960 15.49203342533714
SKYSAT-C11              
1 42987U 17068A   26087.91757052  .00031934  00000+0  50100-3 0  9999
2 42987  97.4231 233.5635 0000455 153.6454 206.4822 15.53627855470762
SKYSAT-C10              
1 42988U 17068B   26088.11925387  .00013509  00000+0  42422-3 0  9997
2 42988  97.4367 224.3331 0001037 107.7774 252.3582 15.33133309470088
SKYSAT-C9               
1 42989U 17068C   26087.95638544  .00017080  00000+0  43625-3 0  9999
2 42989  97.4290 224.3715 0009730  71.0783 289.1517 15.39495883470407
SKYSAT-C8               
1 42990U 17068D   26087.88138704  .00014274  00000+0  41895-3 0  9995
2 42990  97.4383 223.5992 0001211  95.4936 264.6445 15.35265023469982
SKYSAT-C7               
1 42991U 17068E   26088.13278808  .00014729  00000+0  43249-3 0  9995
2 42991  97.4397 224.8372 0006654  44.4802 315.6975 15.35224323470082
SKYSAT-C6               
1 42992U 17068F   26088.09234998  .00012825  00000+0  40515-3 0  9991
2 42992  97.4430 225.0239 0003756  81.6929 278.4739 15.32949642470044
SKYSAT-C12              
1 43797U 18099AR  26088.11218137  .00020366  00000+0  41408-3 0  9991
2 43797  96.9351 114.6848 0006283  91.1446 269.0524 15.46304622409476
SKYSAT-C13              
1 43802U 18099AW  26087.68286984  .00120491  00000+0  63000-3 0  9996
2 43802  96.9362 135.4049 0005511 148.1924 211.9679 15.80487986410164
FLOCK 4Q-16             
1 58271U 23174R   26088.18231002  .00035453  00000+0  73104-3 0  9998
2 58271  97.3842 174.6495 0007801  98.8810 261.3323 15.45780349133209
FLOCK 4Q-11             
1 58273U 23174T   26088.18451023  .00036850  00000+0  74891-3 0  9993
2 58273  97.3882 175.1555 0007449  97.1141 263.0956 15.46199282133218
