[{"OBJECT_NAME":"SKYSAT-A","OBJECT_ID":"2013-066C","EPOCH":"2026-03-29T02:05:06.913248","MEAN_MOTION":15.12489001,"ECCENTRICITY":0.0020475,"INCLINATION":97.3915,"RA_OF_ASC_NODE":140.0257,"ARG_OF_PERICENTER":228.4611,"MEAN_ANOMALY":131.4864,"EPHEMERIS_TYPE":0,"CLASSIFICATION_TYPE":"U","NORAD_CAT_ID":39418,"ELEMENT_SET_NO":999,"REV_AT_EPOCH":67637,"BSTAR":0.00024439,"MEAN_MOTION_DOT":4.21e-5,"MEAN_MOTION_DDOT":0},{"OBJECT_NAME":"SKYSAT-B","OBJECT_ID":"2014-037D","EPOCH":"2026-03-28T19:55:28.178400","MEAN_MOTION":14.87796013,"ECCENTRICITY":0.00056848,"INCLINATION":98.3759,"RA_OF_ASC_NODE":42.267,"ARG_OF_PERICENTER":165.362,"MEAN_ANOMALY":194.776,"EPHEMERIS_TYPE":0,"CLASSIFICATION_TYPE":"U","NORAD_CAT_ID":40072,"ELEMENT_SET_NO":999,"REV_AT_EPOCH":63401,"BSTAR":0.0002037983,"MEAN_MOTION_DOT":1.8e-5,"MEAN_MOTION_DDOT":0},{"OBJECT_NAME":"SKYSAT-C1","OBJECT_ID":"2016-040C","EPOCH":"2026-03-29T04:42:23.085792","MEAN_MOTION":15.34909767,"ECCENTRICITY":0.0001489,"INCLINATION":96.9668,"RA_OF_ASC_NODE":124.2909,"ARG_OF_PERICENTER":7.9918,"MEAN_ANOMALY":352.135,"EPHEMERIS_TYPE":0,"CLASSIFICATION_TYPE":"U","NORAD_CAT_ID":41601,"ELEMENT_SET_NO":999,"REV_AT_EPOCH":54559,"BSTAR":0.0003807,"MEAN_MOTION_DOT":0.00012822,"MEAN_MOTION_DDOT":0},{"OBJECT_NAME":"SKYSAT-C4","OBJECT_ID":"2016-058B","EPOCH":"2026-03-29T03:23:42.631296","MEAN_MOTION":15.46056987,"ECCENTRICITY":0.0002551,"INCLINATION":96.9263,"RA_OF_ASC_NODE":113.3753,"ARG_OF_PERICENTER":129.7757,"MEAN_ANOMALY":230.3718,"EPHEMERIS_TYPE":0,"CLASSIFICATION_TYPE":"U","NORAD_CAT_ID":41771,"ELEMENT_SET_NO":999,"REV_AT_EPOCH":53309,"BSTAR":0.00039534,"MEAN_MOTION_DOT":0.00019262,"MEAN_MOTION_DDOT":0},{"OBJECT_NAME":"SKYSAT-C5","OBJECT_ID":"2016-058C","EPOCH":"2026-03-29T01:36:36.165600","MEAN_MOTION":15.34071904,"ECCENTRICITY":0.0001425,"INCLINATION":97.0581,"RA_OF_ASC_NODE":132.289,"ARG_OF_PERICENTER":195.1231,"MEAN_ANOMALY":164.997,"EPHEMERIS_TYPE":0,"CLASSIFICATION_TYPE":"U","NORAD_CAT_ID":41772,"ELEMENT_SET_NO":999,"REV_AT_EPOCH":53146,"BSTAR":0.00031938,"MEAN_MOTION_DOT":0.00010459,"MEAN_MOTION_DDOT":0},{"OBJECT_NAME":"SKYSAT-C2","OBJECT_ID":"2016-058D","EPOCH":"2026-03-29T03:17:26.742912","MEAN_MOTION":15.4021809,"ECCENTRICITY":0.0003021,"INCLINATION":97.0257,"RA_OF_ASC_NODE":113.3189,"ARG_OF_PERICENTER":20.3168,"MEAN_ANOMALY":339.8199,"EPHEMERIS_TYPE":0,"CLASSIFICATION_TYPE":"U","NORAD_CAT_ID":41773,"ELEMENT_SET_NO":999,"REV_AT_EPOCH":53272,"BSTAR":0.00036046,"MEAN_MOTION_DOT":0.00014417,"MEAN_MOTION_DDOT":0},{"OBJECT_NAME":"SKYSAT-C3","OBJECT_ID":"2016-058E","EPOCH":"2026-03-29T04:47:37.527360","MEAN_MOTION":15.49203342,"ECCENTRICITY":0.0002432,"INCLINATION":96.9142,"RA_OF_ASC_NODE":122.2523,"ARG_OF_PERICENTER":114.2547,"MEAN_ANOMALY":245.896,"EPHEMERIS_TYPE":0,"CLASSIFICATION_TYPE":"U","NORAD_CAT_ID":41774,"ELEMENT_SET_NO":999,"REV_AT_EPOCH":53371,"BSTAR":0.00053123,"MEAN_MOTION_DOT":0.00028929,"MEAN_MOTION_DDOT":0},{"OBJECT_NAME":"SKYSAT-C11","OBJECT_ID":"2017-068A","EPOCH":"2026-03-28T22:01:18.092928","MEAN_MOTION":15.53627855,"ECCENTRICITY":4.55e-5,"INCLINATION":97.4231,"RA_OF_ASC_NODE":233.5635,"ARG_OF_PERICENTER":153.6454,"MEAN_ANOMALY":206.4822,"EPHEMERIS_TYPE":0,"CLASSIFICATION_TYPE":"U","NORAD_CAT_ID":42987,"ELEMENT_SET_NO":999,"REV_AT_EPOCH":47076,"BSTAR":0.000501,"MEAN_MOTION_DOT":0.00031934,"MEAN_MOTION_DDOT":0},{"OBJECT_NAME":"SKYSAT-C10","OBJECT_ID":"2017-068B","EPOCH":"2026-03-29T02:51:43.534368","MEAN_MOTION":15.33133309,"ECCENTRICITY":0.0001037,"INCLINATION":97.4367,"RA_OF_ASC_NODE":224.3331,"ARG_OF_PERICENTER":107.7774,"MEAN_ANOMALY":252.3582,"EPHEMERIS_TYPE":0,"CLASSIFICATION_TYPE":"U","NORAD_CAT_ID":42988,"ELEMENT_SET_NO":999,"REV_AT_EPOCH":47008,"BSTAR":0.00042422,"MEAN_MOTION_DOT":0.00013509,"MEAN_MOTION_DDOT":0},{"OBJECT_NAME":"SKYSAT-C9","OBJECT_ID":"2017-068C","EPOCH":"2026-03-28T22:57:11.702016","MEAN_MOTION":15.39495883,"ECCENTRICITY":0.000973,"INCLINATION":97.429,"RA_OF_ASC_NODE":224.3715,"ARG_OF_PERICENTER":71.0783,"MEAN_ANOMALY":289.1517,"EPHEMERIS_TYPE":0,"CLASSIFICATION_TYPE":"U","NORAD_CAT_ID":42989,"ELEMENT_SET_NO":999,"REV_AT_EPOCH":47040,"BSTAR":0.00043625,"MEAN_MOTION_DOT":0.0001708,"MEAN_MOTION_DDOT":0},{"OBJECT_NAME":"SKYSAT-C8","OBJECT_ID":"2017-068D","EPOCH":"2026-03-28T21:09:11.840256","MEAN_MOTION":15.35265023,"ECCENTRICITY":0.00012115,"INCLINATION":97.4383,"RA_OF_ASC_NODE":223.5992,"ARG_OF_PERICENTER":95.4936,"MEAN_ANOMALY":264.6445,"EPHEMERIS_TYPE":0,"CLASSIFICATION_TYPE":"U","NORAD_CAT_ID":42990,"ELEMENT_SET_NO":999,"REV_AT_EPOCH":46998,"BSTAR":0.00041894655,"MEAN_MOTION_DOT":0.00014274,"MEAN_MOTION_DDOT":0},{"OBJECT_NAME":"SKYSAT-C7","OBJECT_ID":"2017-068E","EPOCH":"2026-03-29T03:11:12.890112","MEAN_MOTION":15.35224323,"ECCENTRICITY":0.0006654,"INCLINATION":97.4397,"RA_OF_ASC_NODE":224.8372,"ARG_OF_PERICENTER":44.4802,"MEAN_ANOMALY":315.6975,"EPHEMERIS_TYPE":0,"CLASSIFICATION_TYPE":"U","NORAD_CAT_ID":42991,"ELEMENT_SET_NO":999,"REV_AT_EPOCH":47008,"BSTAR":0.00043249,"MEAN_MOTION_DOT":0.00014729,"MEAN_MOTION_DDOT":0},{"OBJECT_NAME":"SKYSAT-C6","OBJECT_ID":"2017-068F","EPOCH":"2026-03-29T02:12:59.038272","MEAN_MOTION":15.32949642,"ECCENTRICITY":0.0003756,"INCLINATION":97.443,"RA_OF_ASC_NODE":225.0239,"ARG_OF_PERICENTER":81.6929,"MEAN_ANOMALY":278.4739,"EPHEMERIS_TYPE":0,"CLASSIFICATION_TYPE":"U","NORAD_CAT_ID":42992,"ELEMENT_SET_NO":999,"REV_AT_EPOCH":47004,"BSTAR":0.00040515,"MEAN_MOTION_DOT":0.00012825,"MEAN_MOTION_DDOT":0},{"OBJECT_NAME":"SKYSAT-C12","OBJECT_ID":"2018-099AR","EPOCH":"2026-03-29T02:41:32.470368","MEAN_MOTION":15.46304622,"ECCENTRICITY":0.0006283,"INCLINATION":96.9351,"RA_OF_ASC_NODE":114.6848,"ARG_OF_PERICENTER":91.1446,"MEAN_ANOMALY":269.0524,"EPHEMERIS_TYPE":0,"CLASSIFICATION_TYPE":"U","NORAD_CAT_ID":43797,"ELEMENT_SET_NO":999,"REV_AT_EPOCH":40947,"BSTAR":0.00041408,"MEAN_MOTION_DOT":0.00020366,"MEAN_MOTION_DDOT":0},{"OBJECT_NAME":"SKYSAT-C13","OBJECT_ID":"2018-099AW","EPOCH":"2026-03-28T16:23:19.954176","MEAN_MOTION":15.80487986,"ECCENTRICITY":0.0005511,"INCLINATION":96.9362,"RA_OF_ASC_NODE":135.4049,"ARG_OF_PERICENTER":148.1924,"MEAN_ANOMALY":211.9679,"EPHEMERIS_TYPE":0,"CLASSIFICATION_TYPE":"U","NORAD_CAT_ID":43802,"ELEMENT_SET_NO":999,"REV_AT_EPOCH":41016,"BSTAR":0.00063,"MEAN_MOTION_DOT":0.00120491,"MEAN_MOTION_DDOT":0},{"OBJECT_NAME":"FLOCK 4Q-16","OBJECT_ID":"2023-174R","EPOCH":"2026-03-29T04:22:31.585728","MEAN_MOTION":15.45780349,"ECCENTRICITY":0.0007801,"INCLINATION":97.3842,"RA_OF_ASC_NODE":174.6495,"ARG_OF_PERICENTER":98.881,"MEAN_ANOMALY":261.3323,"EPHEMERIS_TYPE":0,"CLASSIFICATION_TYPE":"U","NORAD_CAT_ID":58271,"ELEMENT_SET_NO":999,"REV_AT_EPOCH":13320,"BSTAR":0.00073104,"MEAN_MOTION_DOT":0.00035453,"MEAN_MOTION_DDOT":0},{"OBJECT_NAME":"FLOCK 4Q-11","OBJECT_ID":"2023-174T","EPOCH":"2026-03-29T04:25:41.683872","MEAN_MOTION":15.46199282,"ECCENTRICITY":0.0007449,"INCLINATION":97.3882,"RA_OF_ASC_NODE":175.1555,"ARG_OF_PERICENTER":97.1141,"MEAN_ANOMALY":263.0956,"EPHEMERIS_TYPE":0,"CLASSIFICATION_TYPE":"U","NORAD_CAT_ID":58273,"ELEMENT_SET_NO":999,"REV_AT_EPOCH":13321,"BSTAR":0.00074891,"MEAN_MOTION_DOT":0.0003685,"MEAN_MOTION_DDOT":0}]
